0 DELTA 1 DEB
1 08978U 75004BL  13282.48935148  .00001156  00000-0  18641-3 0  4773
2 08978 098.2984 288.7677 0034977 023.5269 102.9072 14.73091000  3713
0 DELTA 1 DEB
1 08978U 75004BL  13284.52561410  .00001247  00000-0  20031-3 0  4785
2 08978 098.2980 290.8488 0034829 017.1114 101.4140 14.73095592  4011
0 DELTA 1 DEB
1 08978U 75004BL  13286.82253656  .00001309  00000-0  20996-3 0  4790
2 08978 098.2977 293.1959 0034651 009.8012 042.3501 14.73099565  4359
0 DELTA 1 DEB
1 08978U 75004BL  13288.92944142  .00001610  00000-0  25614-3 0  4809
2 08978 098.2976 295.3488 0034488 003.0683 055.6633 14.73109534  4662
0 DELTA 1 DEB
1 08978U 75004BL  13290.96669861  .00001441  00000-0  23023-3 0  4813
2 08978 098.2978 297.4304 0034364 356.4881 059.7553 14.73115936  4964
0 DELTA 1 DEB
1 08978U 75004BL  13293.49954672  .00001629  00000-0  25901-3 0  4827
2 08978 098.2980 300.0183 0034150 348.3394 172.1262 14.73123237  5337
0 DELTA 1 DEB
1 08978U 75004BL  13295.72048781  .00001819  00000-0  28821-3 0  4836
2 08978 098.2981 302.2878 0033989 341.1541 070.4725 14.73130495  5661
